TRANSPORTER-12 OBJECT BT
1 62674U 25009BT  26068.71416991  .00013824  00000+0  51029-3 0  9998
2 62674  97.4094 151.5992 0003682 313.5044  46.5889 15.27872239121360
STARLINK-36483          
1 67330U 26002AB  26068.08702658  .00034652  00000+0  12629-2 0  9998
2 67330  43.0008 328.9343 0001510 287.9973  72.0714 15.27577963 11140
